[ {"name": "STARLINK-31623", "line1": "1 59272U 24050U   26133.67975800 -.00000509  00000+0 -50457-5 0  9994", "line2": "2 59272  53.1608 238.7846 0001341 101.7709 258.3443 15.30187561120506"}, {"name": "STARLINK-31595", "line1": "1 59273U 24050V   26133.51230615 -.00001728  00000+0 -46242-4 0  9996", "line2": "2 59273  53.1613 239.8798 0001388  95.0788 265.0371 15.30199103120470"}, {"name": "STARLINK-31463", "line1": "1 59296U 24056A   26132.66122669  .00000099  00000+0  13117-4 0  9994", "line2": "2 59296  43.0027 225.4863 0001468 259.8086 100.2600 15.27582860120989"}, {"name": "STARLINK-31487", "line1": "1 59297U 24056B   26133.23780387 -.00000142  00000+0  43476-5 0  9998", "line2": "2 59297  43.0018 226.3925 0000905 283.1036  76.9714 15.27575685121140"}, {"name": "STARLINK-31386", "line1": "1 59298U 24056C   26133.67751912  .00000561  00000+0  29899-4 0  9995", "line2": "2 59298  42.9996 223.6706 0001251 274.1496  85.9212 15.27575656121091"}, {"name": "STARLINK-31409", "line1": "1 59299U 24056D   26133.61567661 -.00000615  00000+0 -12848-4 0  9994", "line2": "2 59299  43.0023 217.1482 0001275 270.4777  89.5928 15.27571086121289"}, {"name": "STARLINK-31489", "line1": "1 59300U 24056E   26133.33517063  .00000091  00000+0  12847-4 0  9992", "line2": "2 59300  43.0020 225.4018 0001370 267.2674  92.8021 15.27572982121043"}, {"name": "STARLINK-31502", "line1": "1 59301U 24056F   26133.58996946 -.00000129  00000+0  48362-5 0  9996", "line2": "2 59301  42.9991 216.9429 0001305 275.0797  84.9906 15.27575401121167"}, {"name": "STARLINK-31447", "line1": "1 59302U 24056G   26133.68008461 -.00000290  00000+0 -10283-5 0  9995", "line2": "2 59302  43.0012 223.6892 0001163 271.3211  88.7507 15.27581595121097"}, {"name": "STARLINK-31504", "line1": "1 59303U 24056H   26133.55702661 -.00000951  00000+0 -25045-4 0  9990", "line2": "2 59303  43.0011 224.4864 0001202 275.3712  84.7002 15.27574335121077"}, {"name": "STARLINK-31474", "line1": "1 59304U 24056J   26133.29387729  .00000681  00000+0  34273-4 0  9997", "line2": "2 59304  43.0027 219.0265 0001190 266.1239  93.9477 15.27576705121114"}, {"name": "STARLINK-31500", "line1": "1 59305U 24056K   26133.29162542 -.00001186  00000+0 -33581-4 0  9996", "line2": "2 59305  42.9994 225.9348 0000528 287.2289  72.8505 15.27580673121035"}, {"name": "STARLINK-31480", "line1": "1 59306U 24056L   26133.60442326 -.00000509  00000+0 -89813-5 0  9991", "line2": "2 59306  42.9978 223.9778 0001195 276.7269  83.3447 15.27575739121089"}, {"name": "STARLINK-31282", "line1": "1 59307U 24056M   26133.36474576 -.00000937  00000+0 -24493-4 0  9994", "line2": "2 59307  43.0012 225.6176 0004366 281.0592  78.9768 15.27543057121043"}, {"name": "STARLINK-31485", "line1": "1 59308U 24056N   26133.30703271 -.00018842  00000+0 -67543-3 0  9992", "line2": "2 59308  43.0047 226.0484 0001835 279.5171  80.5473 15.27650019121030"}, {"name": "STARLINK-31455", "line1": "1 59309U 24056P   26133.37290514 -.00012035  00000+0 -42796-3 0  9992", "line2": "2 59309  43.0050 222.2295 0001237 286.0478  74.0237 15.27621793121080"}, {"name": "STARLINK-31475", "line1": "1 59310U 24056Q   26133.30495843  .00000530  00000+0  28790-4 0  9993", "line2": "2 59310  43.0028 222.5762 0001414 258.5898 101.4795 15.27577387121191"}, {"name": "STARLINK-31445", "line1": "1 59312U 24056S   26133.62659240  .00001640  00000+0  69117-4 0  9994", "line2": "2 59312  43.0008 231.0668 0001171 258.0108 102.0612 15.27580584121008"}, {"name": "STARLINK-31495", "line1": "1 59313U 24056T   26133.31149267  .00040957  00000+0  13968-2 0  9999", "line2": "2 59313  42.9973 218.2865 0002558 347.0969  12.9818 15.29679779121125"}, {"name": "STARLINK-31477", "line1": "1 59314U 24056U   26133.63479633  .00000415  00000+0  24599-4 0  9997", "line2": "2 59314  43.0019 216.4229 0001496 259.6085 100.4598 15.27571795121170"}, {"name": "STARLINK-31446", "line1": "1 59315U 24056V   26133.33131244 -.00000390  00000+0 -46449-5 0  9991", "line2": "2 59315  43.0022 225.3711 0001470 266.8157  93.2527 15.27576430121040"}, {"name": "STARLINK-31479", "line1": "1 59316U 24056W   26133.33354361  .00000117  00000+0  13799-4 0  9995", "line2": "2 59316  43.0036 229.7079 0001741 277.3967  82.6687 15.27578049120998"}, {"name": "STARLINK-31349", "line1": "1 59317U 24056X   26133.28134690  .00000088  00000+0  12726-4 0  9997", "line2": "2 59317  42.9982 225.8529 0000935 284.6977  75.3771 15.27571547121103"}, {"name": "STARLINK-31464", "line1": "1 59318U 24056Y   26133.27363623 -.00000612  00000+0 -12718-4 0  9993", "line2": "2 59318  43.0009 225.7961 0001196 268.5241  91.5474 15.27577773121039"}, {"name": "STARLINK-31402", "line1": "1 59320U 24057A   26133.44389575  .00002691  00000+0  10723-3 0  9990", "line2": "2 59320  43.0025 133.7691 0000875 258.4057 101.6696 15.27596755120279"}, {"name": "STARLINK-31578", "line1": "1 59321U 24057B   26133.48415931  .00006879  00000+0  25902-3 0  9998", "line2": "2 59321  42.9994 180.7060 0001414 268.5293  91.5396 15.27609279119750"}, {"name": "STARLINK-31530", "line1": "1 59322U 24057C   26133.83335647  .00134017  00000+0  14712-2 0  9995", "line2": "2 59322  42.9896 164.3188 0021188  83.8645 233.2028 15.61762620  5973"}, {"name": "STARLINK-31565", "line1": "1 59323U 24057D   26133.50776168  .00001237  00000+0  54465-4 0  9995", "line2": "2 59323  43.0009 188.6737 0001533 273.6522  86.4154 15.27577518119668"}, {"name": "STARLINK-31570", "line1": "1 59324U 24057E   26133.15481231  .00001434  00000+0  61639-4 0  9991", "line2": "2 59324  43.0013 183.3978 0001278 271.6956  88.3749 15.27562462119694"}, {"name": "STARLINK-31611", "line1": "1 59325U 24057F   26133.41763916  .00000946  00000+0  43894-4 0  9994", "line2": "2 59325  43.0002 181.9321 0001284 273.7714  86.2991 15.27578387119735"}, {"name": "STARLINK-31632", "line1": "1 59326U 24057G   26133.58294014  .00001910  00000+0  78931-4 0  9993", "line2": "2 59326  42.9999 191.8381 0001463 269.1176  90.9508 15.27580297119633"}, {"name": "STARLINK-31599", "line1": "1 59327U 24057H   26133.50086720 -.00000315  00000+0 -19194-5 0  9996", "line2": "2 59327  43.0003 180.8399 0001205 274.9354  85.1360 15.27574519119750"}, {"name": "STARLINK-31614", "line1": "1 59328U 24057J   26133.45989551 -.00000395  00000+0 -48245-5 0  9992", "line2": "2 59328  43.0025 181.3947 0001358 277.6013  82.4685 15.27582748119743"}, {"name": "STARLINK-31493", "line1": "1 59329U 24057K   26133.83551035 -.00001005  00000+0 -26986-4 0  9993", "line2": "2 59329  43.0020 179.0504 0001626 271.1490  88.9175 15.27584740119804"}, {"name": "STARLINK-31634", "line1": "1 59330U 24057L   26133.46888902  .00000145  00000+0  14812-4 0  9997", "line2": "2 59330  43.0009 181.4541 0001385 270.6241  89.4452 15.27578189119748"}, {"name": "STARLINK-31633", "line1": "1 59331U 24057M   26133.33556478 -.00001831  00000+0 -57054-4 0  9994", "line2": "2 59331  43.0013 182.1726 0001605 269.5243  90.5425 15.27562904119720"}, {"name": "STARLINK-31594", "line1": "1 59332U 24057N   26133.58677338  .00000957  00000+0  44288-4 0  9992", "line2": "2 59332  43.0011 191.8640 0001331 275.2932  84.7768 15.27593502119639"}, {"name": "STARLINK-31572", "line1": "1 59333U 24057P   26133.85090845 -.00000851  00000+0 -21423-4 0  9996", "line2": "2 59333  43.0004 190.4072 0001262 273.3405  86.7303 15.27571055119673"}, {"name": "STARLINK-31573", "line1": "1 59334U 24057Q   26133.48544561  .00001567  00000+0  66456-4 0  9993", "line2": "2 59334  43.0023 180.7116 0001394 289.4685  70.6016 15.27580312119758"}, {"name": "STARLINK-31588", "line1": "1 59335U 24057R   26133.16493490 -.00001532  00000+0 -46150-4 0  9996", "line2": "2 59335  42.9939 182.6152 0000233 309.7113  50.3718 15.27596729119705"}, {"name": "STARLINK-31596", "line1": "1 59336U 24057S   26133.36498368 -.00003010  00000+0 -10000-3 0  9995", "line2": "2 59336  43.0011 181.5357 0001275 273.9185  86.1520 15.27550037119735"}, {"name": "STARLINK-31612", "line1": "1 59337U 24057T   26133.19192684  .00001231  00000+0  54274-4 0  9992", "line2": "2 59337  43.0034 182.8191 0001166 267.7291  92.3428 15.27568405119700"}, {"name": "STARLINK-31550", "line1": "1 59338U 24057U   26133.41378176 -.00000265  00000+0 -98987-7 0  9990", "line2": "2 59338  42.9998 181.8992 0001195 268.5398  91.5317 15.27576856119735"}, {"name": "STARLINK-31473", "line1": "1 59339U 24057V   26133.50729422  .00002360  00000+0  95207-4 0  9990", "line2": "2 59339  43.0015 180.8859 0000955 284.0716  76.0029 15.27593699119753"}, {"name": "STARLINK-31562", "line1": "1 59340U 24057W   26133.86456093 -.00000400  00000+0 -50199-5 0  9999", "line2": "2 59340  43.0001 193.9853 0001214 270.0984  89.9728 15.27575051119638"}, {"name": "STARLINK-31600", "line1": "1 59341U 24057X   26133.83854361 -.00000969  00000+0 -25700-4 0  9996", "line2": "2 59341  42.9996 186.8527 0001257 275.9321  84.1387 15.27574666119713"}, {"name": "STARLINK-31628", "line1": "1 59342U 24057Y   26133.85478810  .00006252  00000+0  23676-3 0  9998", "line2": "2 59342  43.0032 179.1920 0001377 272.7090  87.3604 15.27544543119808"}, {"name": "STARLINK-31605", "line1": "1 59348U 24060A   26133.34068400 -.00000789  00000+0 -19158-4 0  9994", "line2": "2 59348  42.9973 244.0781 0000928 286.8290  73.2460 15.27575839120013"}, {"name": "STARLINK-31532", "line1": "1 59349U 24060B   26133.36236331  .00000040  00000+0  10988-4 0  9997", "line2": "2 59349  43.0021 254.6253 0000941 254.5354 105.5394 15.27574082120002"}, {"name": "STARLINK-31593", "line1": "1 59350U 24060C   26133.33280429  .00000071  00000+0  12103-4 0  9998", "line2": "2 59350  43.0031 254.4052 0001577 257.5164 102.5511 15.27577360119950"}, {"name": "STARLINK-31555", "line1": "1 59351U 24060D   26133.04313835  .00003174  00000+0  12482-3 0  9991", "line2": "2 59351  43.0010 256.5285 0001653 252.1170 107.9502 15.27576605119952"}, {"name": "STARLINK-31561", "line1": "1 59352U 24060E   26133.39561573  .00000407  00000+0  24320-4 0  9995", "line2": "2 59352  42.9980 254.0086 0001524 197.0540 163.0260 15.27578197119967"}]